COSMOS 2058             
1 20465U 90010A   26074.27580858  .00004730  00000+0  27850-3 0  9997
2 20465  82.4665  41.9228 0008555 325.7993  34.2685 15.11376498943084
SL-14 R/B               
1 20466U 90010B   26074.01516906  .00000510  00000+0  58896-4 0  9990
2 20466  82.4987 262.3847 0018351 283.4593  76.4577 14.83574152929277
SL-14 R/B               
1 20511U 90018B   26074.17315132  .00000566  00000+0  68017-4 0  9991
2 20511  82.5213 217.9642 0017586  75.4739 284.8425 14.82151536923390
HST                     
1 20580U 90037B   26074.09734323  .00009139  00000+0  30180-3 0  9990
2 20580  28.4724   3.1083 0001754 179.9846 180.0750 15.29577841774143
SL-16 R/B               
1 20625U 90046B   26074.28184801 -.00000026  00000+0  11366-4 0  9994
2 20625  70.9975 286.1694 0016171 292.1593  67.7814 14.15011261849182
COSMOS 2084             
1 20663U 90055A   26074.03505408  .00002750  00000+0  20277-3 0  9994
2 20663  62.7914 317.3473 0016237 191.4264 168.6470 15.05685158937120
SL-6 R/B(2)             
1 20666U 90055D   26074.15802317  .00002526  00000+0  19706-3 0  9995
2 20666  62.7820 235.2535 0025680 348.3465  11.7036 15.03624571939010
SL-8 R/B                
1 20775U 90078B   26074.21969090  .00019740  00000+0  58223-3 0  9993
2 20775  82.8998 246.3360 0361028 355.3933   4.3985 14.89261389810124
SL-8 R/B                
1 21088U 91006B   26074.28855046  .00000067  00000+0  51376-4 0  9990
2 21088  82.9463 165.8838 0022746  23.1109  30.8833 13.77495047764840
OKEAN-3                 
1 21397U 91039A   26074.19805802  .00003617  00000+0  25362-3 0  9993
2 21397  82.5203 331.5079 0013433 316.7303  43.2868 15.04850927865864
COSMOS 2151             
1 21422U 91042A   26074.28641650  .00002592  00000+0  20531-3 0  9999
2 21422  82.4929  78.2756 0013655  46.5245 313.7112 15.00129587864035
SL-14 R/B               
1 21423U 91042B   26073.88969336  .00000571  00000+0  69170-4 0  9997
2 21423  82.4934 215.3063 0016083 220.3539 139.6483 14.81835772853844
