CCSDS_OMM_VERS = 2.0
CREATION_DATE  = 
ORIGINATOR     = 

OBJECT_NAME    = COSMOS 2058
OBJECT_ID      = 1990-010A
CENTER_NAME    = EARTH
REF_FRAME      = TEME
TIME_SYSTEM    = UTC
MEAN_ELEMENT_THEORY = SGP/SGP4

EPOCH          = 2026-03-15T06:37:09.861312
MEAN_MOTION    = 15.11376498
ECCENTRICITY   = .00085558
INCLINATION    = 82.4665
RA_OF_ASC_NODE = 41.9228
ARG_OF_PERICENTER = 325.7993
MEAN_ANOMALY   = 34.2685

EPHEMERIS_TYPE = 0
CLASSIFICATION_TYPE = U
NORAD_CAT_ID   = 20465
ELEMENT_SET_NO = 999
REV_AT_EPOCH   = 94308
BSTAR          = .27849646E-3
MEAN_MOTION_DOT = .473E-4
MEAN_MOTION_DDOT = 0

CCSDS_OMM_VERS = 2.0
CREATION_DATE  = 
ORIGINATOR     = 

OBJECT_NAME    = SL-14 R/B
OBJECT_ID      = 1990-010B
CENTER_NAME    = EARTH
REF_FRAME      = TEME
TIME_SYSTEM    = UTC
MEAN_ELEMENT_THEORY = SGP/SGP4

EPOCH          = 2026-03-15T00:21:50.606784
MEAN_MOTION    = 14.83574152
ECCENTRICITY   = .0018351
INCLINATION    = 82.4987
RA_OF_ASC_NODE = 262.3847
ARG_OF_PERICENTER = 283.4593
MEAN_ANOMALY   = 76.4577

EPHEMERIS_TYPE = 0
CLASSIFICATION_TYPE = U
NORAD_CAT_ID   = 20466
ELEMENT_SET_NO = 999
REV_AT_EPOCH   = 92927
BSTAR          = .5889607E-4
MEAN_MOTION_DOT = .51E-5
MEAN_MOTION_DDOT = 0

CCSDS_OMM_VERS = 2.0
CREATION_DATE  = 
ORIGINATOR     = 

OBJECT_NAME    = SL-14 R/B
OBJECT_ID      = 1990-018B
CENTER_NAME    = EARTH
REF_FRAME      = TEME
TIME_SYSTEM    = UTC
MEAN_ELEMENT_THEORY = SGP/SGP4

EPOCH          = 2026-03-15T04:09:20.274048
MEAN_MOTION    = 14.82151536
ECCENTRICITY   = .00175867
INCLINATION    = 82.5213
RA_OF_ASC_NODE = 217.9642
ARG_OF_PERICENTER = 75.4739
MEAN_ANOMALY   = 284.8425

EPHEMERIS_TYPE = 0
CLASSIFICATION_TYPE = U
NORAD_CAT_ID   = 20511
ELEMENT_SET_NO = 999
REV_AT_EPOCH   = 92339
BSTAR          = .68017441E-4
MEAN_MOTION_DOT = .566E-5
MEAN_MOTION_DDOT = 0

CCSDS_OMM_VERS = 2.0
CREATION_DATE  = 
ORIGINATOR     = 

OBJECT_NAME    = HST
OBJECT_ID      = 1990-037B
CENTER_NAME    = EARTH
REF_FRAME      = TEME
TIME_SYSTEM    = UTC
MEAN_ELEMENT_THEORY = SGP/SGP4

EPOCH          = 2026-03-15T02:20:10.455072
MEAN_MOTION    = 15.29577841
ECCENTRICITY   = .00017548
INCLINATION    = 28.4724
RA_OF_ASC_NODE = 3.1083
ARG_OF_PERICENTER = 179.9846
MEAN_ANOMALY   = 180.0750

EPHEMERIS_TYPE = 0
CLASSIFICATION_TYPE = U
NORAD_CAT_ID   = 20580
ELEMENT_SET_NO = 999
REV_AT_EPOCH   = 77414
BSTAR          = .30179876E-3
MEAN_MOTION_DOT = .9139E-4
MEAN_MOTION_DDOT = 0

CCSDS_OMM_VERS = 2.0
CREATION_DATE  = 
ORIGINATOR     = 

OBJECT_NAME    = SL-16 R/B
OBJECT_ID      = 1990-046B
CENTER_NAME    = EARTH
REF_FRAME      = TEME
TIME_SYSTEM    = UTC
MEAN_ELEMENT_THEORY = SGP/SGP4

EPOCH          = 2026-03-15T06:45:51.668064
MEAN_MOTION    = 14.15011261
ECCENTRICITY   = .00161715
INCLINATION    = 70.9975
RA_OF_ASC_NODE = 286.1694
ARG_OF_PERICENTER = 292.1593
MEAN_ANOMALY   = 67.7814

EPHEMERIS_TYPE = 0
CLASSIFICATION_TYPE = U
NORAD_CAT_ID   = 20625
ELEMENT_SET_NO = 999
REV_AT_EPOCH   = 84918
BSTAR          = .113662E-4
MEAN_MOTION_DOT = -.26E-6
MEAN_MOTION_DDOT = 0

CCSDS_OMM_VERS = 2.0
CREATION_DATE  = 
ORIGINATOR     = 

OBJECT_NAME    = COSMOS 2084
OBJECT_ID      = 1990-055A
CENTER_NAME    = EARTH
REF_FRAME      = TEME
TIME_SYSTEM    = UTC
MEAN_ELEMENT_THEORY = SGP/SGP4

EPOCH          = 2026-03-15T00:50:28.672512
MEAN_MOTION    = 15.05685158
ECCENTRICITY   = .00162375
INCLINATION    = 62.7914
RA_OF_ASC_NODE = 317.3473
ARG_OF_PERICENTER = 191.4264
MEAN_ANOMALY   = 168.6470

EPHEMERIS_TYPE = 0
CLASSIFICATION_TYPE = U
NORAD_CAT_ID   = 20663
ELEMENT_SET_NO = 999
REV_AT_EPOCH   = 93712
BSTAR          = .20277077E-3
MEAN_MOTION_DOT = .275E-4
MEAN_MOTION_DDOT = 0

CCSDS_OMM_VERS = 2.0
CREATION_DATE  = 
ORIGINATOR     = 

OBJECT_NAME    = SL-6 R/B(2)
OBJECT_ID      = 1990-055D
CENTER_NAME    = EARTH
REF_FRAME      = TEME
TIME_SYSTEM    = UTC
MEAN_ELEMENT_THEORY = SGP/SGP4

EPOCH          = 2026-03-15T03:47:33.201888
MEAN_MOTION    = 15.03624571
ECCENTRICITY   = .00256806
INCLINATION    = 62.7820
RA_OF_ASC_NODE = 235.2535
ARG_OF_PERICENTER = 348.3465
MEAN_ANOMALY   = 11.7036

EPHEMERIS_TYPE = 0
CLASSIFICATION_TYPE = U
NORAD_CAT_ID   = 20666
ELEMENT_SET_NO = 999
REV_AT_EPOCH   = 93901
BSTAR          = .19705804E-3
MEAN_MOTION_DOT = .2526E-4
MEAN_MOTION_DDOT = 0

CCSDS_OMM_VERS = 2.0
CREATION_DATE  = 
ORIGINATOR     = 

OBJECT_NAME    = SL-8 R/B
OBJECT_ID      = 1990-078B
CENTER_NAME    = EARTH
REF_FRAME      = TEME
TIME_SYSTEM    = UTC
MEAN_ELEMENT_THEORY = SGP/SGP4

EPOCH          = 2026-03-15T05:16:21.293760
MEAN_MOTION    = 14.89261389
ECCENTRICITY   = .03610285
INCLINATION    = 82.8998
RA_OF_ASC_NODE = 246.3360
ARG_OF_PERICENTER = 355.3933
MEAN_ANOMALY   = 4.3985

EPHEMERIS_TYPE = 0
CLASSIFICATION_TYPE = U
NORAD_CAT_ID   = 20775
ELEMENT_SET_NO = 999
REV_AT_EPOCH   = 81012
BSTAR          = .5822267E-3
MEAN_MOTION_DOT = .1974E-3
MEAN_MOTION_DDOT = 0

CCSDS_OMM_VERS = 2.0
CREATION_DATE  = 
ORIGINATOR     = 

OBJECT_NAME    = SL-8 R/B
OBJECT_ID      = 1991-006B
CENTER_NAME    = EARTH
REF_FRAME      = TEME
TIME_SYSTEM    = UTC
MEAN_ELEMENT_THEORY = SGP/SGP4

EPOCH          = 2026-03-15T06:55:30.759744
MEAN_MOTION    = 13.77495047
ECCENTRICITY   = .00227469
INCLINATION    = 82.9463
RA_OF_ASC_NODE = 165.8838
ARG_OF_PERICENTER = 23.1109
MEAN_ANOMALY   = 30.8833

EPHEMERIS_TYPE = 0
CLASSIFICATION_TYPE = U
NORAD_CAT_ID   = 21088
ELEMENT_SET_NO = 999
REV_AT_EPOCH   = 76484
BSTAR          = .51375824E-4
MEAN_MOTION_DOT = .67E-6
MEAN_MOTION_DDOT = 0

CCSDS_OMM_VERS = 2.0
CREATION_DATE  = 
ORIGINATOR     = 

OBJECT_NAME    = OKEAN-3
OBJECT_ID      = 1991-039A
CENTER_NAME    = EARTH
REF_FRAME      = TEME
TIME_SYSTEM    = UTC
MEAN_ELEMENT_THEORY = SGP/SGP4

EPOCH          = 2026-03-15T04:45:12.212928
MEAN_MOTION    = 15.04850927
ECCENTRICITY   = .00134332
INCLINATION    = 82.5203
RA_OF_ASC_NODE = 331.5079
ARG_OF_PERICENTER = 316.7303
MEAN_ANOMALY   = 43.2868

EPHEMERIS_TYPE = 0
CLASSIFICATION_TYPE = U
NORAD_CAT_ID   = 21397
ELEMENT_SET_NO = 999
REV_AT_EPOCH   = 86586
BSTAR          = .25362019E-3
MEAN_MOTION_DOT = .3617E-4
MEAN_MOTION_DDOT = 0

CCSDS_OMM_VERS = 2.0
CREATION_DATE  = 
ORIGINATOR     = 

OBJECT_NAME    = COSMOS 2151
OBJECT_ID      = 1991-042A
CENTER_NAME    = EARTH
REF_FRAME      = TEME
TIME_SYSTEM    = UTC
MEAN_ELEMENT_THEORY = SGP/SGP4

EPOCH          = 2026-03-15T06:52:26.385600
MEAN_MOTION    = 15.00129587
ECCENTRICITY   = .00136557
INCLINATION    = 82.4929
RA_OF_ASC_NODE = 78.2756
ARG_OF_PERICENTER = 46.5245
MEAN_ANOMALY   = 313.7112

EPHEMERIS_TYPE = 0
CLASSIFICATION_TYPE = U
NORAD_CAT_ID   = 21422
ELEMENT_SET_NO = 999
REV_AT_EPOCH   = 86403
BSTAR          = .20531412E-3
MEAN_MOTION_DOT = .2592E-4
MEAN_MOTION_DDOT = 0

CCSDS_OMM_VERS = 2.0
CREATION_DATE  = 
ORIGINATOR     = 

OBJECT_NAME    = SL-14 R/B
OBJECT_ID      = 1991-042B
CENTER_NAME    = EARTH
REF_FRAME      = TEME
TIME_SYSTEM    = UTC
MEAN_ELEMENT_THEORY = SGP/SGP4

EPOCH          = 2026-03-14T21:21:09.506304
MEAN_MOTION    = 14.81835772
ECCENTRICITY   = .00160833
INCLINATION    = 82.4934
RA_OF_ASC_NODE = 215.3063
ARG_OF_PERICENTER = 220.3539
MEAN_ANOMALY   = 139.6483

EPHEMERIS_TYPE = 0
CLASSIFICATION_TYPE = U
NORAD_CAT_ID   = 21423
ELEMENT_SET_NO = 999
REV_AT_EPOCH   = 85384
BSTAR          = .69169616E-4
MEAN_MOTION_DOT = .571E-5
MEAN_MOTION_DDOT = 0

